IDEFIX & ARIANE 42P R/B 
1 27422U 02021B   26005.28716292  .00000476  00000+0  19736-3 0  9997
2 27422  98.5810 304.6757 0012268  19.1913 340.9730 14.30971988234954
AQUA                    
1 27424U 02022A   26004.96787593  .00001598  00000+0  32997-3 0  9996
2 27424  98.4069 331.2279 0002002  90.2377   0.6092 14.61798176259425
CZ-4B R/B               
1 27432U 02024C   26005.12819837  .00000104  00000+0  76480-4 0  9991
2 27432  98.8961  58.8143 0049835 202.6150 212.6457 14.14533801220253
MIDORI II (ADEOS-II)    
1 27597U 02056A   26005.30817594  .00000496  00000+0  21318-3 0  9999
2 27597  98.7666 323.3922 0001289 132.8938 227.2352 14.29227712201241
H-2A R/B                
1 27601U 02056E   26004.92189909  .00000606  00000+0  22702-3 0  9995
2 27601  98.3095 327.7598 0070248 352.5998  73.6843 14.33702407204979
CZ-4B R/B               
1 28059U 03049C   26004.97822710  .00000645  00000+0  15938-3 0  9991
2 28059  98.6803 357.4222 0049262  66.6240 294.0127 14.54937522177330
CZ-2C R/B               
1 28222U 04012C   26005.14130983  .00045907  00000+0  61672-3 0  9994
2 28222  97.7374  64.7241 0016778 181.0970 179.0250 15.57618204194360
SL-16 R/B               
1 28353U 04021B   26005.31051164  .00000363  00000+0  21350-3 0  9997
2 28353  71.0018   5.4990 0003811 160.8951 199.2315 14.14588625113874
CZ-4B R/B               
1 28415U 04035C   26005.33985806  .00010084  00000+0  36785-3 0  9991
2 28415  97.3575  40.3720 0032546 190.5708 169.4851 15.27840523170238
CZ-2C R/B               
1 28480U 04046B   26005.30856968  .00000456  00000+0  18472-3 0  9993
2 28480  98.1999 284.2236 0139193 342.7827  16.8659 14.26960020 99468
ARIANE 5 R/B            
1 28499U 04049H   26005.16789610  .00001611  00000+0  18402-3 0  9996
2 28499  98.2532 171.2924 0084071 196.1975 163.6549 14.85092627136364
CZ-2D R/B               
1 28738U 05024B   26005.29070275  .00037877  00000+0  56771-3 0  9994
2 28738  97.3618  18.3791 0003076 241.9285 118.1658 15.54848462129919
