CCSDS_OMM_VERS = 2.0
CREATION_DATE  = 
ORIGINATOR     = 

OBJECT_NAME    = IDEFIX & ARIANE 42P R/B
OBJECT_ID      = 2002-021B
CENTER_NAME    = EARTH
REF_FRAME      = TEME
TIME_SYSTEM    = UTC
MEAN_ELEMENT_THEORY = SGP/SGP4

EPOCH          = 2026-01-05T06:53:30.876288
MEAN_MOTION    = 14.30971988
ECCENTRICITY   = .00122681
INCLINATION    = 98.5810
RA_OF_ASC_NODE = 304.6757
ARG_OF_PERICENTER = 19.1913
MEAN_ANOMALY   = 340.9730

EPHEMERIS_TYPE = 0
CLASSIFICATION_TYPE = U
NORAD_CAT_ID   = 27422
ELEMENT_SET_NO = 999
REV_AT_EPOCH   = 23495
BSTAR          = .19735645E-3
MEAN_MOTION_DOT = .476E-5
MEAN_MOTION_DDOT = 0

CCSDS_OMM_VERS = 2.0
CREATION_DATE  = 
ORIGINATOR     = 

OBJECT_NAME    = AQUA
OBJECT_ID      = 2002-022A
CENTER_NAME    = EARTH
REF_FRAME      = TEME
TIME_SYSTEM    = UTC
MEAN_ELEMENT_THEORY = SGP/SGP4

EPOCH          = 2026-01-04T23:13:44.480352
MEAN_MOTION    = 14.61798176
ECCENTRICITY   = .00020022
INCLINATION    = 98.4069
RA_OF_ASC_NODE = 331.2279
ARG_OF_PERICENTER = 90.2377
MEAN_ANOMALY   = 0.6092

EPHEMERIS_TYPE = 0
CLASSIFICATION_TYPE = U
NORAD_CAT_ID   = 27424
ELEMENT_SET_NO = 999
REV_AT_EPOCH   = 25942
BSTAR          = .32996806E-3
MEAN_MOTION_DOT = .1598E-4
MEAN_MOTION_DDOT = 0

CCSDS_OMM_VERS = 2.0
CREATION_DATE  = 
ORIGINATOR     = 

OBJECT_NAME    = CZ-4B R/B
OBJECT_ID      = 2002-024C
CENTER_NAME    = EARTH
REF_FRAME      = TEME
TIME_SYSTEM    = UTC
MEAN_ELEMENT_THEORY = SGP/SGP4

EPOCH          = 2026-01-05T03:04:36.339168
MEAN_MOTION    = 14.14533801
ECCENTRICITY   = .00498357
INCLINATION    = 98.8961
RA_OF_ASC_NODE = 58.8143
ARG_OF_PERICENTER = 202.6150
MEAN_ANOMALY   = 212.6457

EPHEMERIS_TYPE = 0
CLASSIFICATION_TYPE = U
NORAD_CAT_ID   = 27432
ELEMENT_SET_NO = 999
REV_AT_EPOCH   = 22025
BSTAR          = .76480244E-4
MEAN_MOTION_DOT = .104E-5
MEAN_MOTION_DDOT = 0

CCSDS_OMM_VERS = 2.0
CREATION_DATE  = 
ORIGINATOR     = 

OBJECT_NAME    = MIDORI II (ADEOS-II)
OBJECT_ID      = 2002-056A
CENTER_NAME    = EARTH
REF_FRAME      = TEME
TIME_SYSTEM    = UTC
MEAN_ELEMENT_THEORY = SGP/SGP4

EPOCH          = 2026-01-05T07:23:46.401216
MEAN_MOTION    = 14.29227712
ECCENTRICITY   = .00012895
INCLINATION    = 98.7666
RA_OF_ASC_NODE = 323.3922
ARG_OF_PERICENTER = 132.8938
MEAN_ANOMALY   = 227.2352

EPHEMERIS_TYPE = 0
CLASSIFICATION_TYPE = U
NORAD_CAT_ID   = 27597
ELEMENT_SET_NO = 999
REV_AT_EPOCH   = 20124
BSTAR          = .21318485E-3
MEAN_MOTION_DOT = .496E-5
MEAN_MOTION_DDOT = 0

CCSDS_OMM_VERS = 2.0
CREATION_DATE  = 
ORIGINATOR     = 

OBJECT_NAME    = H-2A R/B
OBJECT_ID      = 2002-056E
CENTER_NAME    = EARTH
REF_FRAME      = TEME
TIME_SYSTEM    = UTC
MEAN_ELEMENT_THEORY = SGP/SGP4

EPOCH          = 2026-01-04T22:07:32.081376
MEAN_MOTION    = 14.33702407
ECCENTRICITY   = .0070248
INCLINATION    = 98.3095
RA_OF_ASC_NODE = 327.7598
ARG_OF_PERICENTER = 352.5998
MEAN_ANOMALY   = 73.6843

EPHEMERIS_TYPE = 0
CLASSIFICATION_TYPE = U
NORAD_CAT_ID   = 27601
ELEMENT_SET_NO = 999
REV_AT_EPOCH   = 20497
BSTAR          = .22702E-3
MEAN_MOTION_DOT = .606E-5
MEAN_MOTION_DDOT = 0

CCSDS_OMM_VERS = 2.0
CREATION_DATE  = 
ORIGINATOR     = 

OBJECT_NAME    = CZ-4B R/B
OBJECT_ID      = 2003-049C
CENTER_NAME    = EARTH
REF_FRAME      = TEME
TIME_SYSTEM    = UTC
MEAN_ELEMENT_THEORY = SGP/SGP4

EPOCH          = 2026-01-04T23:28:38.821440
MEAN_MOTION    = 14.54937522
ECCENTRICITY   = .0049262
INCLINATION    = 98.6803
RA_OF_ASC_NODE = 357.4222
ARG_OF_PERICENTER = 66.6240
MEAN_ANOMALY   = 294.0127

EPHEMERIS_TYPE = 0
CLASSIFICATION_TYPE = U
NORAD_CAT_ID   = 28059
ELEMENT_SET_NO = 999
REV_AT_EPOCH   = 17733
BSTAR          = .15938E-3
MEAN_MOTION_DOT = .645E-5
MEAN_MOTION_DDOT = 0

CCSDS_OMM_VERS = 2.0
CREATION_DATE  = 
ORIGINATOR     = 

OBJECT_NAME    = CZ-2C R/B
OBJECT_ID      = 2004-012C
CENTER_NAME    = EARTH
REF_FRAME      = TEME
TIME_SYSTEM    = UTC
MEAN_ELEMENT_THEORY = SGP/SGP4

EPOCH          = 2026-01-05T03:23:29.169312
MEAN_MOTION    = 15.57618204
ECCENTRICITY   = .00167785
INCLINATION    = 97.7374
RA_OF_ASC_NODE = 64.7241
ARG_OF_PERICENTER = 181.0970
MEAN_ANOMALY   = 179.0250

EPHEMERIS_TYPE = 0
CLASSIFICATION_TYPE = U
NORAD_CAT_ID   = 28222
ELEMENT_SET_NO = 999
REV_AT_EPOCH   = 19436
BSTAR          = .61671871E-3
MEAN_MOTION_DOT = .45907E-3
MEAN_MOTION_DDOT = 0

CCSDS_OMM_VERS = 2.0
CREATION_DATE  = 
ORIGINATOR     = 

OBJECT_NAME    = SL-16 R/B
OBJECT_ID      = 2004-021B
CENTER_NAME    = EARTH
REF_FRAME      = TEME
TIME_SYSTEM    = UTC
MEAN_ELEMENT_THEORY = SGP/SGP4

EPOCH          = 2026-01-05T07:27:08.205696
MEAN_MOTION    = 14.14588625
ECCENTRICITY   = .00038118
INCLINATION    = 71.0018
RA_OF_ASC_NODE = 5.4990
ARG_OF_PERICENTER = 160.8951
MEAN_ANOMALY   = 199.2315

EPHEMERIS_TYPE = 0
CLASSIFICATION_TYPE = U
NORAD_CAT_ID   = 28353
ELEMENT_SET_NO = 999
REV_AT_EPOCH   = 11387
BSTAR          = .21350095E-3
MEAN_MOTION_DOT = .363E-5
MEAN_MOTION_DDOT = 0

CCSDS_OMM_VERS = 2.0
CREATION_DATE  = 
ORIGINATOR     = 

OBJECT_NAME    = CZ-4B R/B
OBJECT_ID      = 2004-035C
CENTER_NAME    = EARTH
REF_FRAME      = TEME
TIME_SYSTEM    = UTC
MEAN_ELEMENT_THEORY = SGP/SGP4

EPOCH          = 2026-01-05T08:09:23.736384
MEAN_MOTION    = 15.27840523
ECCENTRICITY   = .0032546
INCLINATION    = 97.3575
RA_OF_ASC_NODE = 40.3720
ARG_OF_PERICENTER = 190.5708
MEAN_ANOMALY   = 169.4851

EPHEMERIS_TYPE = 0
CLASSIFICATION_TYPE = U
NORAD_CAT_ID   = 28415
ELEMENT_SET_NO = 999
REV_AT_EPOCH   = 17023
BSTAR          = .36784833E-3
MEAN_MOTION_DOT = .10084E-3
MEAN_MOTION_DDOT = 0

CCSDS_OMM_VERS = 2.0
CREATION_DATE  = 
ORIGINATOR     = 

OBJECT_NAME    = CZ-2C R/B
OBJECT_ID      = 2004-046B
CENTER_NAME    = EARTH
REF_FRAME      = TEME
TIME_SYSTEM    = UTC
MEAN_ELEMENT_THEORY = SGP/SGP4

EPOCH          = 2026-01-05T07:24:20.420352
MEAN_MOTION    = 14.26960020
ECCENTRICITY   = .01391933
INCLINATION    = 98.1999
RA_OF_ASC_NODE = 284.2236
ARG_OF_PERICENTER = 342.7827
MEAN_ANOMALY   = 16.8659

EPHEMERIS_TYPE = 0
CLASSIFICATION_TYPE = U
NORAD_CAT_ID   = 28480
ELEMENT_SET_NO = 999
REV_AT_EPOCH   = 9946
BSTAR          = .18472378E-3
MEAN_MOTION_DOT = .456E-5
MEAN_MOTION_DDOT = 0

CCSDS_OMM_VERS = 2.0
CREATION_DATE  = 
ORIGINATOR     = 

OBJECT_NAME    = ARIANE 5 R/B
OBJECT_ID      = 2004-049H
CENTER_NAME    = EARTH
REF_FRAME      = TEME
TIME_SYSTEM    = UTC
MEAN_ELEMENT_THEORY = SGP/SGP4

EPOCH          = 2026-01-05T04:01:46.223040
MEAN_MOTION    = 14.85092627
ECCENTRICITY   = .00840712
INCLINATION    = 98.2532
RA_OF_ASC_NODE = 171.2924
ARG_OF_PERICENTER = 196.1975
MEAN_ANOMALY   = 163.6549

EPHEMERIS_TYPE = 0
CLASSIFICATION_TYPE = U
NORAD_CAT_ID   = 28499
ELEMENT_SET_NO = 999
REV_AT_EPOCH   = 13636
BSTAR          = .18402378E-3
MEAN_MOTION_DOT = .1611E-4
MEAN_MOTION_DDOT = 0

CCSDS_OMM_VERS = 2.0
CREATION_DATE  = 
ORIGINATOR     = 

OBJECT_NAME    = CZ-2D R/B
OBJECT_ID      = 2005-024B
CENTER_NAME    = EARTH
REF_FRAME      = TEME
TIME_SYSTEM    = UTC
MEAN_ELEMENT_THEORY = SGP/SGP4

EPOCH          = 2026-01-05T06:58:36.717600
MEAN_MOTION    = 15.54848462
ECCENTRICITY   = .00030766
INCLINATION    = 97.3618
RA_OF_ASC_NODE = 18.3791
ARG_OF_PERICENTER = 241.9285
MEAN_ANOMALY   = 118.1658

EPHEMERIS_TYPE = 0
CLASSIFICATION_TYPE = U
NORAD_CAT_ID   = 28738
ELEMENT_SET_NO = 999
REV_AT_EPOCH   = 12991
BSTAR          = .56771323E-3
MEAN_MOTION_DOT = .37877E-3
MEAN_MOTION_DDOT = 0

